STRIX-4                 
1 60352U 24137A   26068.65404516  .00020530  00000+0  71820-3 0  9996
2 60352  43.0134 129.8162 0016840   5.2738 354.8289 15.29026223 88766
STARLINK-34450          
1 64447U 25130K   26068.64917931  .00039687  00000+0  13433-2 0  9996
2 64447  53.1599  88.9546 0001114  92.4011 267.7118 15.30239893 40697
